{
    "links": {
        "self": "http://www.neowsapp.com/rest/v1/neo/3715405?api_key=iIulBulltgU6a56xZRHN4H3l9WmuAYTsLGpBGhQ2"
    },
    "id": "3715405",
    "neo_reference_id": "3715405",
    "name": "(2015 DN224)",
    "designation": "2015 DN224",
    "nasa_jpl_url": "http://ssd.jpl.nasa.gov/sbdb.cgi?sstr=3715405",
    "absolute_magnitude_h": 24.6,
    "estimated_diameter": {
        "kilometers": {
            "estimated_diameter_min": 0.0319561887,
            "estimated_diameter_max": 0.0714562102
        },
        "meters": {
            "estimated_diameter_min": 31.9561886721,
            "estimated_diameter_max": 71.4562101727
        },
        "miles": {
            "estimated_diameter_min": 0.0198566489,
            "estimated_diameter_max": 0.0444008168
        },
        "feet": {
            "estimated_diameter_min": 104.8431420431,
            "estimated_diameter_max": 234.436392583
        }
    },
    "is_potentially_hazardous_asteroid": false,
    "close_approach_data": [
        {
            "close_approach_date": "2015-02-15",
            "close_approach_date_full": "2015-Feb-15 13:07",
            "epoch_date_close_approach": 1424005620000,
            "relative_velocity": {
                "kilometers_per_second": "17.0415950222",
                "kilometers_per_hour": "61349.7420799373",
                "miles_per_hour": "38120.3439051699"
            },
            "miss_distance": {
                "astronomical": "0.0532443669",
                "lunar": "20.7120587241",
                "kilometers": "7965243.877738503",
                "miles": "4949373.0401492214"
            },
            "orbiting_body": "Earth"
        },
        {
            "close_approach_date": "2136-02-18",
            "close_approach_date_full": "2136-Feb-18 02:24",
            "epoch_date_close_approach": 5242587840000,
            "relative_velocity": {
                "kilometers_per_second": "17.5457864213",
                "kilometers_per_hour": "63164.8311168078",
                "miles_per_hour": "39248.1696458854"
            },
            "miss_distance": {
                "astronomical": "0.0681635627",
                "lunar": "26.5156258903",
                "kilometers": "10197123.791531449",
                "miles": "6336198.9106100362"
            },
            "orbiting_body": "Earth"
        },
        {
            "close_approach_date": "2140-08-13",
            "close_approach_date_full": "2140-Aug-13 13:49",
            "epoch_date_close_approach": 5384152140000,
            "relative_velocity": {
                "kilometers_per_second": "22.644521723",
                "kilometers_per_hour": "81520.2782027683",
                "miles_per_hour": "50653.530642159"
            },
            "miss_distance": {
                "astronomical": "0.3300630306",
                "lunar": "128.3945189034",
                "kilometers": "49376726.343504822",
                "miles": "30681275.0402256636"
            },
            "orbiting_body": "Earth"
        },
        {
            "close_approach_date": "2142-02-28",
            "close_approach_date_full": "2142-Feb-28 15:43",
            "epoch_date_close_approach": 5432888580000,
            "relative_velocity": {
                "kilometers_per_second": "24.1321732279",
                "kilometers_per_hour": "86875.8236205599",
                "miles_per_hour": "53981.258293564"
            },
            "miss_distance": {
                "astronomical": "0.3778291103",
                "lunar": "146.9755239067",
                "kilometers": "56522430.124875061",
                "miles": "35121409.4781994018"
            },
            "orbiting_body": "Earth"
        }
    ],
    "orbital_data": {
        "orbit_id": "5",
        "orbit_determination_date": "2019-07-18 07:27:33",
        "first_observation_date": "2015-02-18",
        "last_observation_date": "2015-02-24",
        "data_arc_in_days": 6,
        "observations_used": 8,
        "orbit_uncertainty": "9",
        "minimum_orbit_intersection": ".0419151",
        "jupiter_tisserand_invariant": "5.365",
        "epoch_osculation": "2457075.5",
        "eccentricity": ".2690115598221111",
        "semi_major_axis": "1.135976254398212",
        "inclination": "29.37783017274828",
        "ascending_node_longitude": "148.432330313186",
        "orbital_period": "442.2341809534405",
        "perihelion_distance": ".8303855102816695",
        "perihelion_argument": "271.3874921809242",
        "aphelion_distance": "1.441566998514754",
        "perihelion_time": "2457000.851417206057",
        "mean_anomaly": "60.76755475544932",
        "mean_motion": ".8140483379730018",
        "equinox": "J2000",
        "orbit_class": {
            "orbit_class_type": "APO",
            "orbit_class_description": "Near-Earth asteroid orbits which cross the Earth’s orbit similar to that of 1862 Apollo",
            "orbit_class_range": "a (semi-major axis) > 1.0 AU; q (perihelion) < 1.017 AU"
        }
    },
    "is_sentry_object": false
}